[{"OBJECT_NAME":"239ALFEROV (RS61S)","OBJECT_ID":"2025-155F","EPOCH":"2026-03-09T21:46:33.382848","MEAN_MOTION":15.29933217,"ECCENTRICITY":0.00084878,"INCLINATION":97.4469,"RA_OF_ASC_NODE":37.6373,"ARG_OF_PERICENTER":151.5904,"MEAN_ANOMALY":208.58,"EPHEMERIS_TYPE":0,"CLASSIFICATION_TYPE":"U","NORAD_CAT_ID":64881,"ELEMENT_SET_NO":999,"REV_AT_EPOCH":6561,"BSTAR":0.00067233359,"MEAN_MOTION_DOT":0.00019457,"MEAN_MOTION_DDOT":0},{"OBJECT_NAME":"STARLINK-35669","OBJECT_ID":"2025-257S","EPOCH":"2026-03-09T16:10:08.929344","MEAN_MOTION":15.30201833,"ECCENTRICITY":9.924e-5,"INCLINATION":53.1608,"RA_OF_ASC_NODE":216.9084,"ARG_OF_PERICENTER":84.2037,"MEAN_ANOMALY":275.9077,"EPHEMERIS_TYPE":0,"CLASSIFICATION_TYPE":"U","NORAD_CAT_ID":66396,"ELEMENT_SET_NO":999,"REV_AT_EPOCH":1973,"BSTAR":0.00055291493,"MEAN_MOTION_DOT":0.00016053,"MEAN_MOTION_DDOT":0}]
